#aV2006  4 13  0  0   .00000000      96 DD+AD WGS84 FIT  NGA
## 1370 345600.00000000   900.00000000 53838  .0000000000000
+   29     1  2  3  4  5  6  7  8  9 10 11 13 14 15 16 17 18
+         19 20 21 22 23 24 25 26 27 28 29 30  0  0  0  0  0
+          0  0  0  0  0  0  0  0  0  0  0  0  0  0  0  0  0
+          0  0  0  0  0  0  0  0  0  0  0  0  0  0  0  0  0
+          0  0  0  0  0  0  0  0  0  0  0  0  0  0  0  0  0
++         0  0  0  0  0  0  0  0  0  0  0  0  0  0  0  0  0
++         0  0  0  0  0  0  0  0  0  0  0  0  0  0  0  0  0
++         0  0  0  0  0  0  0  0  0  0  0  0  0  0  0  0  0
++         0  0  0  0  0  0  0  0  0  0  0  0  0  0  0  0  0
++         0  0  0  0  0  0  0  0  0  0  0  0  0  0  0  0  0
%c cc cc ccc ccc cccc cccc cccc cccc ccccc ccccc ccccc ccccc
%c cc cc ccc ccc cccc cccc cccc cccc ccccc ccccc ccccc ccccc
%f  0.0000000  0.000000000  0.00000000000  0.000000000000000
%f  0.0000000  0.000000000  0.00000000000  0.000000000000000
%i    0    0    0    0      0      0      0      0         0
%i    0    0    0    0      0      0      0      0         0
/*      NGA, ST. LOUIS,MO.                                  
/*   EPHEMERIS COMPUTED FROM  3 DAYS OF DATA                
/* CCCCCCCCCCCCCCCCCCCCCCCCCCCCCCCCCCCCCCCCCCCCCCCCCCCCCCCCC
/* CCCCCCCCCCCCCCCCCCCCCCCCCCCCCCCCCCCCCCCCCCCCCCCCCCCCCCCCC
*  2006  4 13 19  0   .00000000                                                 
P  1 -14557.741958    977.608576 -22000.156125     46.870839                    
V  1  -4731.681662 -27933.072661   1832.210923       .020691                    
P  2  22247.220772  -9703.913814 -10824.803000     -9.280060                    
V  2  -8081.611942  11092.466093 -27420.282658       .022210                    
P  3 -14255.761692   7283.002176  21008.994846     90.075629                    
V  3  -8585.567944 -25835.069746   3409.750244       .032960                    
P  4  19888.519175   -432.426661 -17799.033590    204.043739                    
V  4 -15885.199481  15919.483267 -17824.617975       .101280                    
P  5   4438.876990 -15186.279042 -21523.758580   -167.764446                    
V  5  26202.414204   6394.323847   1068.243224       .663346                    
P  6  -6077.813167 -25806.702750   -385.643075    469.547126                    
V  6   3787.455773   -196.195891 -31201.528351       .233520                    
P  7 -16031.829463 -14350.540331  15822.736952    527.592541                    
V  7  -2851.586062 -19563.978415 -21209.911815       .043875                    
P  8  13718.290971   7551.724248  21365.387453    -62.469528                    
V  8 -20825.052223  17763.146297   6654.426984      -.010341                    
P  9  13395.534370 -21330.615743  -8484.279413     15.925095                    
V  9   9174.377694  -5085.789206  29415.713452       .016372                    
P 10  21702.112981  -3280.684698  15082.233370     81.723469                    
V 10  17582.937983   7789.499337 -23152.284721       .006223                    
P 11 -10784.544828  22834.165969  -7890.548086    320.310483                    
V 11 -10005.925459   4837.293159  28156.987072       .026143                    
P 13   5775.939950  25918.549474   1355.524719     54.326724                    
V 13  -1409.031593   2110.274567 -32328.249849       .027459                    
P 14 -14305.200773 -14757.020165 -16782.527830    -16.016272                    
V 14  -2941.163198 -21201.279894  21020.610511       .007291                    
P 15 -13519.395948  -8381.767664  21159.183637    596.108972                    
V 15  21240.725565 -17005.182276   6396.036730       .061995                    
P 16 -24630.214356   -784.914000  10128.549726     36.611213                    
V 16 -11294.192630  -6270.894711 -28095.505321       .022481                    
P 17  14553.025328  15852.788104 -15641.575635     81.966836                    
V 17   2262.763124  19761.606697  22064.180212       .046370                    
P 18 -13565.462627 -16853.075941  15700.551935   -230.628755                    
V 18  19035.148771   5201.314361  21870.688554      -.017938                    
P 19  -8753.140455  19046.266913  16391.422052    -15.369160                    
V 19  -4964.177287 -20124.590078  20906.032906       .015223                    
P 20  -3429.909106  14970.006869 -21764.921840    -28.695241                    
V 20 -26191.507254  -8125.676320  -1433.464827       .007411                    
P 21  -5565.226067 -15200.628357  21028.090059     21.155703                    
V 21  21138.634674 -16405.884003  -6798.672054       .029277                    
P 22 -23146.253289 -12282.918853   4504.911832     85.220291                    
V 22   6205.101115   -722.629999  30952.254075       .036262                    
P 23  -1950.011487  24392.239687 -10219.623245    144.149303                    
V 23  -5035.602321 -12097.346337 -28316.803219      -.010566                    
P 24  10298.074776  11097.532827 -21595.756084    100.480722                    
V 24 -21715.465701  17637.886003  -1027.016183       .029408                    
P 25 -20398.454068   5656.040391 -15717.816077      9.925745                    
V 25  12441.482191 -16640.993703 -21459.932512       .064163                    
P 26   9601.756087 -15475.724510  18719.774140    -85.706660                    
V 26   5925.050087  24041.723407  17078.926791      -.105180                    
P 27   5782.623711  15510.511814  21308.464265     44.174326                    
V 27 -18648.354425  17795.616159  -8461.383978       .017343                    
P 28  21670.010256  13529.219928   8177.085223     29.563863                    
V 28 -10115.340787  -1049.762927  29231.761319      -.008494                    
P 29  11477.698685 -11999.754540  20900.813309    584.584571                    
V 29   6415.080823  25202.431038  11338.025292       .084063                    
P 30  -7172.657775 -16805.745049 -19593.686932    138.268884                    
V 30  23728.299584   5425.605599 -13416.062263       .516032                    
EOF
